ONEWEB-0435             
1 51632U 22012L   26168.04280602  .00003230  00000+0  92081-2 0  9998
2 51632  87.8815  36.3056 0001551  85.3861 274.7443 13.10405336209291
ONEWEB-0436             
1 51633U 22012M   26168.06034172  .00000006  00000+0 -17933-4 0  9994
2 51633  87.9140   5.8708 0001624  90.1504 269.9813 13.17649251213664
ONEWEB-0438             
1 51634U 22012N   26168.10270338 -.00005311  00000+0 -15271-1 0  9991
2 51634  87.8780  36.2962 0001423  81.6955 278.4334 13.10322407209332
ONEWEB-0439             
1 51635U 22012P   26168.02968226 -.00005191  00000+0 -14930-1 0  9990
2 51635  87.8867  36.2981 0001750  96.8071 263.3255 13.10308580209308
ONEWEB-0442             
1 51636U 22012Q   26168.05275419  .00000075  00000+0  16097-3 0  9991
2 51636  87.9130   5.9051 0002392  82.0916 278.0487 13.17648825213651
ONEWEB-0443             
1 51637U 22012R   26168.07215134  .00000045  00000+0  81927-4 0  9994
2 51637  87.9131   5.9022 0001752  76.8974 283.2353 13.17649631213707
ONEWEB-0444             
1 51638U 22012S   26168.09606007 -.00004039  00000+0 -11619-1 0  9997
2 51638  87.8819  36.2845 0001642  78.2730 281.8582 13.10330590209329
ONEWEB-0445             
1 51639U 22012T   26168.04114324  .00004096  00000+0  11684-1 0  9992
2 51639  87.8842  36.2843 0001850  90.1563 269.9777 13.10414713209325
ONEWEB-0446             
1 51640U 22012U   26168.09436758 -.00001596  00000+0 -46099-2 0  9990
2 51640  87.8798  36.3021 0001356  87.8063 272.3220 13.10350025209310
ONEWEB-0448             
1 51641U 22012V   26168.09938799 -.00004807  00000+0 -13825-1 0  9991
2 51641  87.8832  36.2986 0001934  80.9857 279.1489 13.10324356209282
ONEWEB-0449             
1 51642U 22012W   26168.02799883 -.00004361  00000+0 -12544-1 0  9996
2 51642  87.8830  36.2979 0002086  74.2218 285.9139 13.10329728209284
ONEWEB-0451             
1 51643U 22012X   26168.05697912  .00000029  00000+0  42654-4 0  9993
2 51643  87.9142   5.8690 0002005  82.9452 277.1908 13.17648846213645
ONEWEB-0452             
1 51644U 22012Y   26168.05527919  .00000062  00000+0  12548-3 0  9998
2 51644  87.9132   5.9061 0001877  78.1518 281.9824 13.17649344213659
ONEWEB-0456             
1 51646U 22012AA  26168.03780046  .00004794  00000+0  13680-1 0  9992
2 51646  87.8840  36.2826 0001704  82.9110 277.2212 13.10418336209328
ONEWEB-0457             
1 51647U 22012AB  26168.09090332 -.00001132  00000+0 -32791-2 0  9991
2 51647  87.8833  36.2907 0001728  92.4120 267.7205 13.10356386209337
ONEWEB-0458             
1 51648U 22012AC  26168.03623286 -.00000387  00000+0 -11442-2 0  9997
2 51648  87.8838  36.2894 0001815  76.3364 283.7965 13.10370468209288
