[{"OBJECT_NAME":"ONEWEB-0435","OBJECT_ID":"2022-012L","EPOCH":"2026-06-17T01:01:38.440128","MEAN_MOTION":13.10405336,"ECCENTRICITY":0.0001551,"INCLINATION":87.8815,"RA_OF_ASC_NODE":36.3056,"ARG_OF_PERICENTER":85.3861,"MEAN_ANOMALY":274.7443,"EPHEMERIS_TYPE":0,"CLASSIFICATION_TYPE":"U","NORAD_CAT_ID":51632,"ELEMENT_SET_NO":999,"REV_AT_EPOCH":20929,"BSTAR":0.0092081,"MEAN_MOTION_DOT":3.23e-05,"MEAN_MOTION_DDOT":0.0},{"OBJECT_NAME":"ONEWEB-0436","OBJECT_ID":"2022-012M","EPOCH":"2026-06-17T01:26:53.524608","MEAN_MOTION":13.17649251,"ECCENTRICITY":0.0001624,"INCLINATION":87.914,"RA_OF_ASC_NODE":5.8708,"ARG_OF_PERICENTER":90.1504,"MEAN_ANOMALY":269.9813,"EPHEMERIS_TYPE":0,"CLASSIFICATION_TYPE":"U","NORAD_CAT_ID":51633,"ELEMENT_SET_NO":999,"REV_AT_EPOCH":21366,"BSTAR":-1.7933e-05,"MEAN_MOTION_DOT":6e-08,"MEAN_MOTION_DDOT":0.0},{"OBJECT_NAME":"ONEWEB-0438","OBJECT_ID":"2022-012N","EPOCH":"2026-06-17T02:27:53.572032","MEAN_MOTION":13.10322407,"ECCENTRICITY":0.0001423,"INCLINATION":87.878,"RA_OF_ASC_NODE":36.2962,"ARG_OF_PERICENTER":81.6955,"MEAN_ANOMALY":278.4334,"EPHEMERIS_TYPE":0,"CLASSIFICATION_TYPE":"U","NORAD_CAT_ID":51634,"ELEMENT_SET_NO":999,"REV_AT_EPOCH":20933,"BSTAR":-0.015271000000000002,"MEAN_MOTION_DOT":-5.311e-05,"MEAN_MOTION_DDOT":0.0},{"OBJECT_NAME":"ONEWEB-0439","OBJECT_ID":"2022-012P","EPOCH":"2026-06-17T00:42:44.547264","MEAN_MOTION":13.1030858,"ECCENTRICITY":0.000175,"INCLINATION":87.8867,"RA_OF_ASC_NODE":36.2981,"ARG_OF_PERICENTER":96.8071,"MEAN_ANOMALY":263.3255,"EPHEMERIS_TYPE":0,"CLASSIFICATION_TYPE":"U","NORAD_CAT_ID":51635,"ELEMENT_SET_NO":999,"REV_AT_EPOCH":20930,"BSTAR":-0.014929999999999999,"MEAN_MOTION_DOT":-5.191e-05,"MEAN_MOTION_DDOT":0.0},{"OBJECT_NAME":"ONEWEB-0442","OBJECT_ID":"2022-012Q","EPOCH":"2026-06-17T01:15:57.962016","MEAN_MOTION":13.17648825,"ECCENTRICITY":0.0002392,"INCLINATION":87.913,"RA_OF_ASC_NODE":5.9051,"ARG_OF_PERICENTER":82.0916,"MEAN_ANOMALY":278.0487,"EPHEMERIS_TYPE":0,"CLASSIFICATION_TYPE":"U","NORAD_CAT_ID":51636,"ELEMENT_SET_NO":999,"REV_AT_EPOCH":21365,"BSTAR":0.00016097,"MEAN_MOTION_DOT":7.5e-07,"MEAN_MOTION_DDOT":0.0},{"OBJECT_NAME":"ONEWEB-0443","OBJECT_ID":"2022-012R","EPOCH":"2026-06-17T01:43:53.875776","MEAN_MOTION":13.17649631,"ECCENTRICITY":0.0001752,"INCLINATION":87.9131,"RA_OF_ASC_NODE":5.9022,"ARG_OF_PERICENTER":76.8974,"MEAN_ANOMALY":283.2353,"EPHEMERIS_TYPE":0,"CLASSIFICATION_TYPE":"U","NORAD_CAT_ID":51637,"ELEMENT_SET_NO":999,"REV_AT_EPOCH":21370,"BSTAR":8.1927e-05,"MEAN_MOTION_DOT":4.5e-07,"MEAN_MOTION_DDOT":0.0},{"OBJECT_NAME":"ONEWEB-0444","OBJECT_ID":"2022-012S","EPOCH":"2026-06-17T02:18:19.590048","MEAN_MOTION":13.1033059,"ECCENTRICITY":0.0001642,"INCLINATION":87.8819,"RA_OF_ASC_NODE":36.2845,"ARG_OF_PERICENTER":78.273,"MEAN_ANOMALY":281.8582,"EPHEMERIS_TYPE":0,"CLASSIFICATION_TYPE":"U","NORAD_CAT_ID":51638,"ELEMENT_SET_NO":999,"REV_AT_EPOCH":20932,"BSTAR":-0.011619,"MEAN_MOTION_DOT":-4.039e-05,"MEAN_MOTION_DDOT":0.0},{"OBJECT_NAME":"ONEWEB-0445","OBJECT_ID":"2022-012T","EPOCH":"2026-06-17T00:59:14.775936","MEAN_MOTION":13.10414713,"ECCENTRICITY":0.000185,"INCLINATION":87.8842,"RA_OF_ASC_NODE":36.2843,"ARG_OF_PERICENTER":90.1563,"MEAN_ANOMALY":269.9777,"EPHEMERIS_TYPE":0,"CLASSIFICATION_TYPE":"U","NORAD_CAT_ID":51639,"ELEMENT_SET_NO":999,"REV_AT_EPOCH":20932,"BSTAR":0.011684,"MEAN_MOTION_DOT":4.096e-05,"MEAN_MOTION_DDOT":0.0},{"OBJECT_NAME":"ONEWEB-0446","OBJECT_ID":"2022-012U","EPOCH":"2026-06-17T02:15:53.358912","MEAN_MOTION":13.10350025,"ECCENTRICITY":0.0001356,"INCLINATION":87.8798,"RA_OF_ASC_NODE":36.3021,"ARG_OF_PERICENTER":87.8063,"MEAN_ANOMALY":272.322,"EPHEMERIS_TYPE":0,"CLASSIFICATION_TYPE":"U","NORAD_CAT_ID":51640,"ELEMENT_SET_NO":999,"REV_AT_EPOCH":20931,"BSTAR":-0.0046099,"MEAN_MOTION_DOT":-1.596e-05,"MEAN_MOTION_DDOT":0.0},{"OBJECT_NAME":"ONEWEB-0448","OBJECT_ID":"2022-012V","EPOCH":"2026-06-17T02:23:07.122336","MEAN_MOTION":13.10324356,"ECCENTRICITY":0.0001934,"INCLINATION":87.8832,"RA_OF_ASC_NODE":36.2986,"ARG_OF_PERICENTER":80.9857,"MEAN_ANOMALY":279.1489,"EPHEMERIS_TYPE":0,"CLASSIFICATION_TYPE":"U","NORAD_CAT_ID":51641,"ELEMENT_SET_NO":999,"REV_AT_EPOCH":20928,"BSTAR":-0.013825000000000002,"MEAN_MOTION_DOT":-4.807e-05,"MEAN_MOTION_DDOT":0.0},{"OBJECT_NAME":"ONEWEB-0449","OBJECT_ID":"2022-012W","EPOCH":"2026-06-17T00:40:19.098912","MEAN_MOTION":13.10329728,"ECCENTRICITY":0.0002086,"INCLINATION":87.883,"RA_OF_ASC_NODE":36.2979,"ARG_OF_PERICENTER":74.2218,"MEAN_ANOMALY":285.9139,"EPHEMERIS_TYPE":0,"CLASSIFICATION_TYPE":"U","NORAD_CAT_ID":51642,"ELEMENT_SET_NO":999,"REV_AT_EPOCH":20928,"BSTAR":-0.012544,"MEAN_MOTION_DOT":-4.361e-05,"MEAN_MOTION_DDOT":0.0},{"OBJECT_NAME":"ONEWEB-0451","OBJECT_ID":"2022-012X","EPOCH":"2026-06-17T01:22:02.995968","MEAN_MOTION":13.17648846,"ECCENTRICITY":0.0002005,"INCLINATION":87.9142,"RA_OF_ASC_NODE":5.869,"ARG_OF_PERICENTER":82.9452,"MEAN_ANOMALY":277.1908,"EPHEMERIS_TYPE":0,"CLASSIFICATION_TYPE":"U","NORAD_CAT_ID":51643,"ELEMENT_SET_NO":999,"REV_AT_EPOCH":21364,"BSTAR":4.2654e-05,"MEAN_MOTION_DOT":2.9e-07,"MEAN_MOTION_DDOT":0.0},{"OBJECT_NAME":"ONEWEB-0452","OBJECT_ID":"2022-012Y","EPOCH":"2026-06-17T01:19:36.122016","MEAN_MOTION":13.17649344,"ECCENTRICITY":0.0001877,"INCLINATION":87.9132,"RA_OF_ASC_NODE":5.9061,"ARG_OF_PERICENTER":78.1518,"MEAN_ANOMALY":281.9824,"EPHEMERIS_TYPE":0,"CLASSIFICATION_TYPE":"U","NORAD_CAT_ID":51644,"ELEMENT_SET_NO":999,"REV_AT_EPOCH":21365,"BSTAR":0.00012548,"MEAN_MOTION_DOT":6.2e-07,"MEAN_MOTION_DDOT":0.0},{"OBJECT_NAME":"ONEWEB-0456","OBJECT_ID":"2022-012AA","EPOCH":"2026-06-17T00:54:25.959744","MEAN_MOTION":13.10418336,"ECCENTRICITY":0.0001704,"INCLINATION":87.884,"RA_OF_ASC_NODE":36.2826,"ARG_OF_PERICENTER":82.911,"MEAN_ANOMALY":277.2212,"EPHEMERIS_TYPE":0,"CLASSIFICATION_TYPE":"U","NORAD_CAT_ID":51646,"ELEMENT_SET_NO":999,"REV_AT_EPOCH":20932,"BSTAR":0.013680000000000001,"MEAN_MOTION_DOT":4.794e-05,"MEAN_MOTION_DDOT":0.0},{"OBJECT_NAME":"ONEWEB-0457","OBJECT_ID":"2022-012AB","EPOCH":"2026-06-17T02:10:54.046848","MEAN_MOTION":13.10356386,"ECCENTRICITY":0.0001728,"INCLINATION":87.8833,"RA_OF_ASC_NODE":36.2907,"ARG_OF_PERICENTER":92.412,"MEAN_ANOMALY":267.7205,"EPHEMERIS_TYPE":0,"CLASSIFICATION_TYPE":"U","NORAD_CAT_ID":51647,"ELEMENT_SET_NO":999,"REV_AT_EPOCH":20933,"BSTAR":-0.0032791,"MEAN_MOTION_DOT":-1.132e-05,"MEAN_MOTION_DDOT":0.0},{"OBJECT_NAME":"ONEWEB-0458","OBJECT_ID":"2022-012AC","EPOCH":"2026-06-17T00:52:10.519104","MEAN_MOTION":13.10370468,"ECCENTRICITY":0.0001815,"INCLINATION":87.8838,"RA_OF_ASC_NODE":36.2894,"ARG_OF_PERICENTER":76.3364,"MEAN_ANOMALY":283.7965,"EPHEMERIS_TYPE":0,"CLASSIFICATION_TYPE":"U","NORAD_CAT_ID":51648,"ELEMENT_SET_NO":999,"REV_AT_EPOCH":20928,"BSTAR":-0.0011442,"MEAN_MOTION_DOT":-3.87e-06,"MEAN_MOTION_DDOT":0.0}]